#cP2017 11  1  0  0  0.00000000      96 ORBIT IGS14 HLM  IGS
## 1973 259200.00000000   900.00000000 58058 0.0000000000000
+   32   G01G02G03G04G05G06G07G08G09G10G11G12G13G14G15G16G17
+        G18G19G20G21G22G23G24G25G26G27G28G29G30G31G32  0  0
+          0  0  0  0  0  0  0  0  0  0  0  0  0  0  0  0  0
+          0  0  0  0  0  0  0  0  0  0  0  0  0  0  0  0  0
+          0  0  0  0  0  0  0  0  0  0  0  0  0  0  0  0  0
++         2  2  2  0  2  2  2  2  2  2  2  2  2  2  2  2  2
++         2  2  2  2  2  2  2  2  2  2  2  2  2  2  2  0  0
++         0  0  0  0  0  0  0  0  0  0  0  0  0  0  0  0  0
++         0  0  0  0  0  0  0  0  0  0  0  0  0  0  0  0  0
++         0  0  0  0  0  0  0  0  0  0  0  0  0  0  0  0  0
%c G  cc GPS ccc cccc cccc cccc cccc ccccc ccccc ccccc ccccc
%c cc cc ccc ccc cccc cccc cccc cccc ccccc ccccc ccccc ccccc
%f  1.2500000  1.025000000  0.00000000000  0.000000000000000
%f  0.0000000  0.000000000  0.00000000000  0.000000000000000
%i    0    0    0    0      0      0      0      0         0
%i    0    0    0    0      0      0      0      0         0
/* RAPID ORBIT COMBINATION FROM WEIGHTED AVERAGE OF:        
/* cod emr esa gfz jpl ngs sio usn whu                      
/* REFERENCED TO IGS TIME (IGST) AND TO WEIGHTED MEAN POLE: 
/* PCV:IGS14_1972 OL/AL:FES2004  NONE     Y  ORB:CMB CLK:CMB
*  2017 11  1 22 30  0.00000000
PG01 -14617.995455   3277.533063  21797.415169     -7.737766  4  7  6  77       
PG02  14251.762097  19277.462660 -11225.555148    291.574689 11  6  8 107       
PG03 -21827.593983  11696.835489   9520.890403    -48.033816  7  6  6  97       
PG04 -18923.074889 -13354.587330 -13648.235485 999999.999999
PG05  14958.530341   6520.939116 -21087.152209    -24.086969  9  6  5  98       
PG06   7019.899853  25596.471097   -872.565476    407.776663  7  5  3 114       
PG07  -7801.294525  18671.074308 -16766.927632    285.271399  7  5  7  61       
PG08 -25954.716693  -5324.757303   2629.455399    -79.115118  7  8 11 122       
PG09 -14491.498877  10471.934696 -19675.822071    466.053437  5  3  8 118       
PG10   5831.953381 -20714.615954  15501.443735    101.901889  3  4  5 121       
PG11 -18588.010786   -518.501061  18359.797611   -724.359927  5  5  8  77       
PG12  21899.840326  -7811.514291  12491.708454    366.639827  9  7  5 121       
PG13  23238.387737  12387.916468  -3480.740421    -93.462450 11  8 12 154       
PG14 -11857.804227 -17047.266588  16934.416719    -87.614230  6  7  5 124       
PG15  26296.928899   2185.897823   4298.923429   -356.970299 10  6  6 107       
PG16 -14549.544029  -6377.851960 -21492.040399     36.652851 10  9  9 134       
PG17   2294.249367  15975.038481  21496.635876   -147.296646  7  4  2 113       
PG18  13614.318199 -21850.175033   6722.747435    632.171586  6  9  6 120       
PG19  10684.947187  16723.069333  17261.874086   -477.977409  9  6  7 130       
PG20  21057.397496  -9299.940180 -13377.817934    491.512670  8  9  6 126       
PG21   4438.142450 -21479.801205 -14141.346903   -465.946858  9  9  7  94       
PG22 -21002.917519   4997.879401  15728.954263   -174.871322  8  7  7 101       
PG23 -23194.136140   3097.391019 -12699.911264   -218.465675  8  8  5 117       
PG24  15885.334066   -374.006916  21216.747013    -41.686899  6  3  4 123       
PG25  19768.402551 -17482.838745   1467.256035   -482.557170     6  4 117       
PG26  -5815.040084 -15084.208109 -21048.226005   -377.066652  9  8  6 145       
PG27 -21814.820158 -12507.687604  -8956.673838    343.501940 11  8  8 130       
PG28 -10297.647497  20399.060194  14183.904219    659.000068  7  5  5 113       
PG29  18990.557551  -5756.380414 -17656.098816    543.665940  5  7  5 125       
PG30  -1378.681339  25108.734721  -8307.594159    130.861310  8  6  7  52       
PG31  -7829.961665 -24886.164479  -3546.492536    164.919115  5  4  4 119       
PG32  -5456.301886 -16333.061275  20261.411990   -519.474542  6  6  6 128       
*  2017 11  1 22 45  0.00000000
PG01 -15279.496207    857.794132  21597.851147     -7.739872  4  7  7  88       
PG02  14400.843375  20498.281833  -8737.630162    291.565888 11  6  9 109       
PG03 -21126.878858  10654.010526  12001.688515    -48.029144  7  6  6  89       
PG04 -17282.909644 -13260.042448 -15732.591680 999999.999999
PG05  13328.475802   8309.811741 -21530.286265    -24.086248  9  5  6 101       
PG06   6777.609080  25600.726017   1998.048433    407.778348  6  5  4 119       
PG07  -8492.505340  16716.819829 -18432.232483    285.266924  7  5  8  76       
PG08 -26028.905264  -5574.534548   -230.542045    -79.115605  8  8 11 119       
PG09 -16569.393774   9834.008331 -18316.699111    466.057906  4     8 122       
PG10   7125.974303 -21762.300190  13363.398553    101.909378  4  3  5 129       
PG11 -19764.499659  -2330.711542  16969.575938   -724.361393  6  5  9  89       
PG12  20828.502991  -6628.821617  14785.389950    366.638238  9  6  5 122       
PG13  22648.498460  12402.835891  -6282.739625    -93.465026 11  8 12 159       
PG14  -9942.142975 -16539.435816  18601.486772    -87.614962  6  6  5 123       
PG15  26591.509203   2554.718648   1555.908388   -356.970613 10  6  5  88       
PG16 -12716.137079  -8005.015432 -22070.856055     36.652739 10  8  9 134       
PG17    -16.278978  15298.815144  22099.708714   -147.294721  7  5  3  99       
PG18  14243.948279 -22035.838211   4018.561612    632.172370  7  8  6 120       
PG19   8642.111804  16129.254831  18888.172899   -477.975561  9  6  6 131       
PG20  20241.354992  -7860.943670 -15429.365354    491.513583  8  9  5 117       
PG21   5251.396705 -19782.648506 -16101.980722   -465.943845  9 10  7 113       
PG22 -19930.907090   3451.273175  17466.566314   -174.882535  8  7  7 104       
PG23 -24444.497870   2554.895495 -10339.562308   -218.465807  8  8  5 119       
PG24  16572.550593   1941.842560  20623.271105    -41.688242  6  3  4 123       
PG25  19685.464103 -17072.391205   4340.431212   -482.562823  2  6  4 102       
PG26  -4128.127796 -16740.988377 -20167.046766   -377.054949  9  7  6 147       
PG27 -20654.045467 -12392.973490 -11501.183004    343.505428 11  7  8 129       
PG28 -11433.216596  21212.419972  11817.350471    659.002818  6  5  5 106       
PG29  20769.315027  -5058.655973 -15763.501965    543.661503  7  8  6 119       
PG30  -1887.528099  24091.329069 -10844.915384    130.858965  8  6  7  79       
PG31  -7624.900516 -25195.842652   -671.064140    164.917121  5  4  4 120       
PG32  -3144.370395 -15842.118186  21119.208345   -519.477913  6  6  5 128       
*  2017 11  1 23  0  0.00000000
PG01 -16053.426079  -1478.865423  21022.862255     -7.741899  5  7  7  93       
PG02  14504.777192  21436.312619  -6098.779750    291.557187 11  5  9 114       
PG03 -20304.560940   9372.733053  14275.253020    -48.024342  7  7  6 114       
PG04 -15421.457828 -13232.019615 -17555.451940 999999.999999
PG05  11770.425765  10202.243488 -21606.699821    -24.085067  9  5  6 121       
PG06   6428.996538  25312.667716   4834.265995    407.780087  6  5  4 110       
PG07  -9334.495137  14638.370843 -19770.624081    285.262242  6  5  8  91       
PG08 -25798.354952  -5763.146926  -3086.593322    -79.116275  8  8 11 122       
PG09 -18508.714861   9333.453026 -16643.254200    466.062409  4     9 127       
PG10   8197.897572 -22682.132278  10994.158965    101.916716  4  2  6 130       
PG11 -20895.560712  -3959.262137  15273.542673   -724.363077  7  5  9 106       
PG12  19651.827868  -5210.451782  16819.648832    366.636683  9  5  4 121       
PG13  21764.239021  12354.639953  -8976.800242    -93.465951 12  8 12 107       
PG14  -7839.619167 -16089.553560  19957.069447    -87.615593  5  6  5 121       
PG15  26597.449288   2871.739598  -1213.313885   -356.970917 10  6  6  87       
PG16 -10944.611060  -9767.771377 -22275.835203     36.652689 10  8  9 126       
PG17  -2407.569022  14743.099895  22335.834067   -147.292561  7  5  4 107       
PG18  14678.692319 -22005.864315   1245.143848    632.172726  7  8  6 128       
PG19   6409.245115  15599.590419  20179.671017   -477.973754  8  6  5 124       
PG20  19369.709012  -6210.565153 -17217.699867    491.514782  8  8  5 121       
PG21   6224.766059 -17926.517254 -17768.674992   -465.940657 10 10  7 117       
PG22 -18823.120956   1717.868049  18909.126741   -174.894507  8  8  6 118       
PG23 -25447.425075   2127.945779  -7803.295590   -218.465971  8  8  6 131       
PG24  17340.989832   4136.822055  19673.636556    -41.688700  6  3  4 121       
PG25  19412.735526 -16412.995765   7137.664156   -482.568413  3  6  3 115       
PG26  -2605.008730 -18391.461439 -18937.793624   -377.043238  9  7  7 149       
PG27 -19217.278323 -12291.880482 -13850.656356    343.508911 12  7  8 136       
PG28 -12328.585226  21896.247695   9253.717198    659.005757  5  6  5 115       
PG29  22361.021861  -4517.052532 -13599.629170    543.657245  8  8  6 112       
PG30  -2521.203809  22834.083160 -13194.047932    130.856606  8  7  7  88       
PG31  -7338.487230 -25200.700203   2216.220750    164.914644  5  3  4 121       
PG32   -734.423578 -15457.569933  21614.712205   -519.481266  7  5  6 130       
EOF
